[{"OBJECT_NAME":"GAOFEN-11 05","OBJECT_ID":"2024-130A","EPOCH":"2026-03-09T22:37:47.360064","MEAN_MOTION":15.23784242,"ECCENTRICITY":0.00077059,"INCLINATION":97.4051,"RA_OF_ASC_NODE":148.5891,"ARG_OF_PERICENTER":100.8064,"MEAN_ANOMALY":259.4041,"EPHEMERIS_TYPE":0,"CLASSIFICATION_TYPE":"U","NORAD_CAT_ID":60249,"ELEMENT_SET_NO":999,"REV_AT_EPOCH":7035,"BSTAR":0.00034401659,"MEAN_MOTION_DOT":8.217e-5,"MEAN_MOTION_DDOT":0},{"OBJECT_NAME":"SL-3 R\/B","OBJECT_ID":"1988-032B","EPOCH":"2026-03-09T22:19:17.300640","MEAN_MOTION":15.19913684,"ECCENTRICITY":0.00244288,"INCLINATION":97.5196,"RA_OF_ASC_NODE":52.1801,"ARG_OF_PERICENTER":230.5802,"MEAN_ANOMALY":129.327,"EPHEMERIS_TYPE":0,"CLASSIFICATION_TYPE":"U","NORAD_CAT_ID":19046,"ELEMENT_SET_NO":999,"REV_AT_EPOCH":5214,"BSTAR":0.00028784627,"MEAN_MOTION_DOT":6.162e-5,"MEAN_MOTION_DDOT":0}]
